{"type": "Feature", "properties": {"name": "S\u00e3o Paulo", "sigla": "SP"}, "geometry": {"type": "MultiPolygon", "coordinates": [[[[-46.137723, -23.858882], [-46.128293, -23.856613], [-46.124098, -23.859393], [-46.13946, -23.874364], [-46.139056, -23.879064], [-46.138051, -23.890846], [-46.151444, -23.896618], [-46.150938, -23.901341], [-46.160349, -23.905758], [-46.161079, -23.906454], [-46.179256, -23.923882], [-46.170689, -23.938888], [-46.167882, -23.936772], [-46.171698, -23.956159], [-46.177729, -23.959117], [-46.186824, -23.971898], [-46.186787, -23.972256], [-46.181376, -23.990014], [-46.202858, -23.999821], [-46.206809, -23.99779], [-46.202123, -23.990936], [-46.211363, -23.985179], [-46.257228, -23.998872], [-46.265755, -24.009883], [-46.263202, -24.013832], [-46.273726, -24.015198], [-46.278006, -24.021259], [-46.27835, -24.026969], [-46.287026, -24.043965], [-46.289013, -24.039049], [-46.283749, -24.025824], [-46.286449, -24.024605], [-46.304133, -24.019359], [-46.308081, -24.023959], [-46.311284, -24.02319], [-46.316844, -24.021856], [-46.318173, -24.023843], [-46.322245, -24.008567], [-46.321619, -24.002842], [-46.314729, -23.996237], [-46.304973, -23.99228], [-46.3126, -23.980713], [-46.324651, -23.972849], [-46.336833, -23.970235], [-46.345236, -23.968432], [-46.358511, -23.970386], [-46.367183, -23.971349], [-46.368307, -23.980637], [-46.371584, -23.979312], [-46.374152, -23.96873], [-46.384232, -23.969873], [-46.38788, -23.975098], [-46.374622, -23.985762], [-46.379097, -23.992294], [-46.390081, -24.00085], [-46.388969, -24.003575], [-46.390866, -24.010566], [-46.389797, -24.022555], [-46.398922, -24.033077], [-46.399122, -24.017777], [-46.401866, -24.017069], [-46.423238, -24.015005], [-46.454765, -24.023255], [-46.458196, -24.024578], [-46.604759, -24.08918], [-46.709218, -24.143443], [-46.786163, -24.185887], [-46.788846, -24.187367], [-46.796361, -24.193263], [-46.808659, -24.201254], [-46.811418, -24.202053], [-46.857982, -24.227661], [-46.880593, -24.242037], [-46.915124, -24.263979], [-46.940406, -24.280038], [-47.000185, -24.329276], [-47.002956, -24.335571], [-47.000985, -24.349276], [-47.000199, -24.354563], [-47.00844, -24.367612], [-47.016061, -24.386292], [-47.013164, -24.386736], [-47.000887, -24.3968], [-47.005725, -24.401449], [-47.008781, -24.408445], [-47.016564, -24.411932], [-47.018814, -24.413006], [-47.028735, -24.42583], [-47.047279, -24.429036], [-47.08665, -24.451845], [-47.091371, -24.456502], [-47.126272, -24.478709], [-47.154432, -24.498937], [-47.157397, -24.501229], [-47.186467, -24.526474], [-47.186685, -24.529992], [-47.19148, -24.53479], [-47.200597, -24.538055], [-47.212866, -24.547204], [-47.226675, -24.560209], [-47.224571, -24.564932], [-47.232186, -24.570804], [-47.244465, -24.573861], [-47.250466, -24.575404], [-47.290279, -24.599048], [-47.29415, -24.601347], [-47.308049, -24.609601], [-47.360534, -24.64077], [-47.396681, -24.662238], [-47.402118, -24.664915], [-47.401157, -24.667488], [-47.441573, -24.697974], [-47.459996, -24.70478], [-47.48735, -24.714841], [-47.544719, -24.746398], [-47.547898, -24.748411], [-47.582252, -24.770154], [-47.616293, -24.791698], [-47.623384, -24.797007], [-47.631623, -24.803176], [-47.648553, -24.815854], [-47.654535, -24.820421], [-47.672671, -24.83468], [-47.749507, -24.895083], [-47.771848, -24.912647], [-47.841466, -24.974503], [-47.874581, -25.014617], [-47.874767, -25.014971], [-47.885216, -25.038616], [-47.885728, -25.041749], [-47.898315, -25.053025], [-47.90927, -25.062589], [-47.902143, -25.080292], [-47.895017, -25.091766], [-47.8979, -25.096804], [-47.894298, -25.106387], [-47.907913, -25.117692], [-47.918431, -25.14521], [-47.915256, -25.154791], [-47.912517, -25.158046], [-47.920315, -25.160458], [-47.926664, -25.162095], [-47.942848, -25.173084], [-47.969916, -25.197596], [-47.97101, -25.198588], [-47.991125, -25.213974], [-48.000116, -25.220778], [-48.007455, -25.226332], [-48.043999, -25.25754], [-48.050847, -25.264298], [-48.09852, -25.310889], [-48.097865, -25.299173], [-48.085801, -25.285149], [-48.037323, -25.242854], [-48.030596, -25.237004], [-48.024457, -25.229437], [-48.027616, -25.221301], [-48.035245, -25.218871], [-48.046596, -25.22614], [-48.04914, -25.224229], [-48.056904, -25.217878], [-48.056513, -25.232575], [-48.058805, -25.235711], [-48.075221, -25.240454], [-48.081749, -25.242696], [-48.089485, -25.240533], [-48.094679, -25.241395], [-48.100647, -25.242388], [-48.150757, -25.227619], [-48.156913, -25.217267], [-48.177764, -25.206212], [-48.186718, -25.198397], [-48.177912, -25.181551], [-48.167939, -25.159413], [-48.168236, -25.156036], [-48.156404, -25.144145], [-48.166513, -25.143292], [-48.181161, -25.13333], [-48.183909, -25.12543], [-48.194106, -25.113002], [-48.195946, -25.10557], [-48.199157, -25.101935], [-48.209659, -25.079742], [-48.210611, -25.079167], [-48.211617, -25.05868], [-48.209796, -25.03585], [-48.209126, -25.02825], [-48.231074, -25.020282], [-48.231468, -25.014851], [-48.222877, -25.008618], [-48.22975, -25.002204], [-48.228992, -25.000845], [-48.235261, -24.998553], [-48.240178, -24.991498], [-48.251197, -24.978246], [-48.259434, -24.997152], [-48.262851, -24.992298], [-48.277252, -25.019366], [-48.277827, -25.0326], [-48.292342, -25.02392], [-48.298895, -25.023897], [-48.313435, -25.044437], [-48.333188, -25.070067], [-48.333228, -25.057064], [-48.323659, -25.036242], [-48.331989, -25.035633], [-48.336575, -25.039199], [-48.338919, -25.035536], [-48.350745, -25.03598], [-48.354266, -25.019456], [-48.370612, -25.007281], [-48.377535, -25.00134], [-48.410589, -24.979624], [-48.416551, -24.988863], [-48.434437, -24.991045], [-48.473566, -25.012048], [-48.490273, -25.052723], [-48.491101, -25.052727], [-48.50409, -25.069488], [-48.520798, -25.085431], [-48.521092, -25.086029], [-48.542169, -25.09339], [-48.554793, -25.08454], [-48.55936, -25.074827], [-48.559184, -25.060156], [-48.571479, -25.050813], [-48.582178, -25.051061], [-48.584345, -25.032241], [-48.5891, -25.029186], [-48.588387, -25.019202], [-48.597454, -25.002828], [-48.594645, -24.99562], [-48.587874, -24.985919], [-48.583656, -24.985225], [-48.567036, -24.971666], [-48.572163, -24.954428], [-48.568341, -24.952606], [-48.562448, -24.938851], [-48.569806, -24.930602], [-48.566661, -24.903368], [-48.56694, -24.90332], [-48.571576, -24.894508], [-48.558824, -24.900679], [-48.555831, -24.892567], [-48.554849, -24.88273], [-48.548622, -24.8793], [-48.549212, -24.866996], [-48.566193, -24.863453], [-48.56399, -24.855668], [-48.557594, -24.824926], [-48.555273, -24.823289], [-48.558715, -24.820586], [-48.5339, -24.787262], [-48.529766, -24.784622], [-48.516217, -24.768055], [-48.511602, -24.763461], [-48.507215, -24.751869], [-48.501858, -24.744219], [-48.498829, -24.73846], [-48.51102, -24.740062], [-48.522005, -24.735571], [-48.528746, -24.73116], [-48.528707, -24.731081], [-48.532039, -24.729601], [-48.543829, -24.719419], [-48.544111, -24.717453], [-48.551279, -24.712986], [-48.551611, -24.709477], [-48.55963, -24.710205], [-48.567824, -24.695109], [-48.573101, -24.69015], [-48.581366, -24.671118], [-48.586579, -24.677391], [-48.601726, -24.668684], [-48.608977, -24.669267], [-48.612846, -24.669578], [-48.627692, -24.680007], [-48.630175, -24.678588], [-48.643557, -24.683846], [-48.641161, -24.689165], [-48.660848, -24.705954], [-48.671025, -24.698167], [-48.676576, -24.692024], [-48.674465, -24.68355], [-48.670991, -24.678798], [-48.68778, -24.668736], [-48.689509, -24.690052], [-48.68988, -24.692892], [-48.726801, -24.685815], [-48.729627, -24.686505], [-48.736548, -24.686121], [-48.744107, -24.692609], [-48.753066, -24.689206], [-48.765191, -24.690342], [-48.768575, -24.694774], [-48.799243, -24.674887], [-48.810917, -24.673167], [-48.820303, -24.656789], [-48.832682, -24.65865], [-48.839915, -24.664476], [-48.85802, -24.657198], [-48.850971, -24.674132], [-48.864908, -24.666824], [-48.905243, -24.670872], [-48.911968, -24.672947], [-48.914774, -24.68241], [-48.945053, -24.673408], [-48.948084, -24.676077], [-48.962804, -24.672715], [-48.963522, -24.67262], [-48.976142, -24.665966], [-48.987554, -24.664768], [-48.989075, -24.659147], [-48.996378, -24.655758], [-49.009314, -24.657717], [-48.999845, -24.636179], [-49.00425, -24.633923], [-49.03293, -24.633966], [-49.032388, -24.641441], [-49.033961, -24.648973], [-49.036912, -24.659919], [-49.045022, -24.665598], [-49.055322, -24.682147], [-49.075337, -24.672737], [-49.082692, -24.671746], [-49.096645, -24.681318], [-49.097836, -24.679852], [-49.108457, -24.676054], [-49.124542, -24.682375], [-49.128767, -24.680653], [-49.163281, -24.673379], [-49.169353, -24.675114], [-49.185163, -24.672203], [-49.194195, -24.682771], [-49.204403, -24.693805], [-49.208421, -24.700343], [-49.240231, -24.697988], [-49.275452, -24.693118], [-49.293948, -24.67418], [-49.304688, -24.668406], [-49.299135, -24.654456], [-49.301167, -24.649354], [-49.306502, -24.642891], [-49.305887, -24.642352], [-49.315939, -24.638493], [-49.308908, -24.618954], [-49.314186, -24.613764], [-49.303277, -24.596331], [-49.311544, -24.590607], [-49.311862, -24.585569], [-49.310556, -24.580457], [-49.317191, -24.56614], [-49.309297, -24.552911], [-49.305085, -24.54589], [-49.291772, -24.543804], [-49.280873, -24.536712], [-49.286584, -24.513561], [-49.279684, -24.49551], [-49.269078, -24.491774], [-49.263361, -24.473927], [-49.259064, -24.472567], [-49.24798, -24.464229], [-49.247421, -24.457075], [-49.249231, -24.456469], [-49.250029, -24.444921], [-49.252155, -24.433606], [-49.235523, -24.411699], [-49.234973, -24.410542], [-49.236172, -24.407244], [-49.249745, -24.413364], [-49.253377, -24.407255], [-49.224428, -24.364744], [-49.200279, -24.343974], [-49.223798, -24.339729], [-49.230726, -24.329895], [-49.253986, -24.317777], [-49.269111, -24.306838], [-49.288262, -24.291341], [-49.288255, -24.291321], [-49.298173, -24.287319], [-49.299364, -24.271291], [-49.298221, -24.267558], [-49.308185, -24.258171], [-49.307482, -24.256629], [-49.312214, -24.242899], [-49.320826, -24.238974], [-49.32161, -24.236961], [-49.355377, -24.211454], [-49.347748, -24.20675], [-49.34569, -24.191041], [-49.339369, -24.174377], [-49.33792, -24.154948], [-49.336789, -24.137192], [-49.341023, -24.137837], [-49.368321, -24.116142], [-49.370358, -24.113886], [-49.377521, -24.117165], [-49.388838, -24.118873], [-49.393091, -24.114453], [-49.405354, -24.101397], [-49.407329, -24.097431], [-49.41721, -24.091104], [-49.428523, -24.07754], [-49.434033, -24.074977], [-49.429297, -24.068212], [-49.438495, -24.068253], [-49.450361, -24.055021], [-49.452956, -24.052685], [-49.462438, -24.037369], [-49.47327, -24.026819], [-49.473373, -24.02562], [-49.479206, -24.019352], [-49.481057, -24.023512], [-49.489665, -24.018161], [-49.484337, -24.011868], [-49.483014, -24.01143], [-49.485904, -23.999931], [-49.491689, -23.992994], [-49.497453, -23.99334], [-49.503059, -23.968062], [-49.503861, -23.968439], [-49.513244, -23.963959], [-49.507212, -23.961709], [-49.502902, -23.948126], [-49.513387, -23.943927], [-49.520611, -23.945606], [-49.511723, -23.937192], [-49.507557, -23.933224], [-49.513837, -23.923281], [-49.522519, -23.916543], [-49.531522, -23.928578], [-49.555183, -23.922283], [-49.556501, -23.922235], [-49.561782, -23.912151], [-49.56269, -23.911843], [-49.568702, -23.899635], [-49.575695, -23.890793], [-49.573111, -23.877458], [-49.591754, -23.875845], [-49.592939, -23.873426], [-49.601976, -23.867788], [-49.599226, -23.856593], [-49.607606, -23.848147], [-49.594993, -23.846305], [-49.600576, -23.843005], [-49.598082, -23.836373], [-49.595259, -23.837652], [-49.592087, -23.836484], [-49.586672, -23.826679], [-49.577935, -23.826588], [-49.55958, -23.811435], [-49.561085, -23.793581], [-49.560474, -23.790437], [-49.56601, -23.777316], [-49.563334, -23.763704], [-49.571503, -23.754594], [-49.563557, -23.731721], [-49.560329, -23.733375], [-49.55414, -23.722794], [-49.554047, -23.72089], [-49.554759, -23.700768], [-49.560834, -23.691597], [-49.560903, -23.690505], [-49.567632, -23.687546], [-49.575363, -23.67991], [-49.574789, -23.675701], [-49.579244, -23.67777], [-49.581949, -23.667797], [-49.584983, -23.658316], [-49.592029, -23.655371], [-49.610815, -23.64078], [-49.616649, -23.639102], [-49.607753, -23.633573], [-49.613153, -23.622795], [-49.613438, -23.617834], [-49.617553, -23.612129], [-49.620638, -23.606563], [-49.615927, -23.591052], [-49.600689, -23.574739], [-49.603133, -23.571151], [-49.598745, -23.553218], [-49.602165, -23.546785], [-49.599718, -23.53513], [-49.611835, -23.528908], [-49.625252, -23.519401], [-49.618865, -23.506213], [-49.6141, -23.507682], [-49.613537, -23.486496], [-49.614392, -23.471707], [-49.602777, -23.477894], [-49.602084, -23.470145], [-49.599819, -23.461464], [-49.595152, -23.43989], [-49.589615, -23.435347], [-49.57912, -23.43613], [-49.571164, -23.434507], [-49.566613, -23.426741], [-49.589094, -23.415198], [-49.593171, -23.406281], [-49.603849, -23.401895], [-49.601791, -23.400736], [-49.604943, -23.393949], [-49.60516, -23.38426], [-49.602834, -23.383411], [-49.59545, -23.374703], [-49.594789, -23.366444], [-49.62465, -23.355251], [-49.637107, -23.349226], [-49.635724, -23.33928], [-49.621247, -23.331401], [-49.622786, -23.317994], [-49.6309, -23.303944], [-49.639594, -23.255838], [-49.646611, -23.251193], [-49.647744, -23.2379], [-49.64923, -23.237078], [-49.674441, -23.177945], [-49.674568, -23.177871], [-49.680474, -23.169143], [-49.697771, -23.163642], [-49.703058, -23.157816], [-49.716004, -23.147901], [-49.730001, -23.140955], [-49.725947, -23.111113], [-49.726584, -23.107902], [-49.750893, -23.097268], [-49.757048, -23.101428], [-49.789914, -23.101826], [-49.794584, -23.094847], [-49.795886, -23.094082], [-49.809394, -23.086142], [-49.812223, -23.079493], [-49.819622, -23.07626], [-49.8265, -23.074379], [-49.849611, -23.072559], [-49.871059, -23.069279], [-49.875148, -23.065396], [-49.884874, -23.064428], [-49.896208, -23.055356], [-49.915907, -23.035961], [-49.908974, -23.013688], [-49.90173, -23.007998], [-49.930271, -22.982542], [-49.954058, -22.97791], [-49.973555, -22.954252], [-49.965919, -22.945778], [-49.960888, -22.930382], [-49.985672, -22.897021], [-49.997288, -22.900983], [-49.99576, -22.929046], [-50.005226, -22.926865], [-50.024163, -22.909421], [-50.046148, -22.902007], [-50.051575, -22.906963], [-50.080315, -22.921336], [-50.080359, -22.921307], [-50.112962, -22.937813], [-50.133025, -22.939282], [-50.150974, -22.934718], [-50.182844, -22.95327], [-50.196374, -22.952634], [-50.21639, -22.947413], [-50.223616, -22.949644], [-50.238154, -22.952624], [-50.246114, -22.937992], [-50.267665, -22.931974], [-50.28877, -22.937021], [-50.29992, -22.937447], [-50.305698, -22.945726], [-50.337522, -22.947846], [-50.339693, -22.947585], [-50.35809, -22.916581], [-50.368629, -22.910716], [-50.395349, -22.906596], [-50.416385, -22.912771], [-50.418556, -22.925458], [-50.44605, -22.941034], [-50.453468, -22.942765], [-50.487238, -22.936869], [-50.493769, -22.940257], [-50.512423, -22.942823], [-50.528424, -22.924194], [-50.529527, -22.918616], [-50.553905, -22.91121], [-50.576513, -22.903486], [-50.612264, -22.919403], [-50.648317, -22.896561], [-50.661794, -22.895208], [-50.72935, -22.962014], [-50.741095, -22.960908], [-50.758165, -22.947166], [-50.777452, -22.945837], [-50.795778, -22.949596], [-50.792844, -22.905176], [-50.792642, -22.904632], [-50.804232, -22.88549], [-50.816516, -22.879055], [-50.823252, -22.865293], [-50.832725, -22.857802], [-50.841886, -22.830923], [-50.92627, -22.798758], [-50.961117, -22.785743], [-50.976339, -22.78333], [-51.00362, -22.792186], [-51.057114, -22.765573], [-51.154396, -22.752386], [-51.175531, -22.737603], [-51.186515, -22.729407], [-51.240719, -22.696455], [-51.246591, -22.684713], [-51.280928, -22.665994], [-51.305796, -22.673942], [-51.321546, -22.669905], [-51.382529, -22.662394], [-51.386039, -22.664962], [-51.424223, -22.653027], [-51.445795, -22.652778], [-51.498404, -22.690048], [-51.547796, -22.691984], [-51.553431, -22.69434], [-51.615339, -22.662111], [-51.619783, -22.660679], [-51.658823, -22.656872], [-51.680627, -22.660297], [-51.681524, -22.660724], [-51.717664, -22.668533], [-51.725371, -22.660949], [-51.734731, -22.624911], [-51.749335, -22.620422], [-51.752781, -22.617271], [-51.855271, -22.630992], [-51.868865, -22.628518], [-51.889054, -22.612703], [-51.892166, -22.609834], [-51.940008, -22.566862], [-51.997704, -22.545127], [-52.028632, -22.539409], [-52.047634, -22.53861], [-52.050538, -22.53825], [-52.064157, -22.533836], [-52.098123, -22.518489], [-52.098129, -22.518487], [-52.125167, -22.51879], [-52.134895, -22.52743], [-52.150087, -22.558724], [-52.160911, -22.597317], [-52.161132, -22.601363], [-52.181053, -22.652971], [-52.196672, -22.65845], [-52.222989, -22.673825], [-52.227749, -22.66482], [-52.229976, -22.637544], [-52.278175, -22.619903], [-52.289751, -22.627037], [-52.369185, -22.628503], [-52.420855, -22.610865], [-52.434781, -22.606908], [-52.458244, -22.612259], [-52.483406, -22.626621], [-52.502793, -22.633593], [-52.520369, -22.621252], [-52.533126, -22.615639], [-52.566622, -22.588763], [-52.579758, -22.568523], [-52.662436, -22.611381], [-52.701168, -22.626991], [-52.749787, -22.611889], [-52.770076, -22.605442], [-52.782442, -22.60191], [-52.857848, -22.607524], [-52.865708, -22.602978], [-52.914538, -22.568438], [-52.924226, -22.565147], [-52.97813, -22.572942], [-53.024001, -22.603722], [-53.038011, -22.617945], [-53.074205, -22.640865], [-53.087301, -22.657924], [-53.10819, -22.613092], [-53.108193, -22.613084], [-53.055428, -22.535375], [-53.013149, -22.519279], [-53.004139, -22.503407], [-52.885323, -22.452396], [-52.857328, -22.441005], [-52.839372, -22.414835], [-52.797817, -22.377796], [-52.734539, -22.338735], [-52.656377, -22.303322], [-52.624427, -22.279826], [-52.578674, -22.251475], [-52.550028, -22.242456], [-52.492499, -22.219484], [-52.486248, -22.214718], [-52.479454, -22.200405], [-52.397508, -22.121505], [-52.390768, -22.115133], [-52.318579, -21.97189], [-52.313446, -21.961665], [-52.275377, -21.915474], [-52.258925, -21.906265], [-52.247899, -21.901806], [-52.183622, -21.82738], [-52.183449, -21.823172], [-52.175007, -21.797696], [-52.139544, -21.755255], [-52.102396, -21.744795], [-52.075978, -21.714378], [-52.049327, -21.660861], [-52.058973, -21.625739], [-52.062284, -21.620123], [-52.068376, -21.597625], [-52.092745, -21.537583], [-52.077285, -21.514747], [-51.997666, -21.515155], [-51.967399, -21.501288], [-51.94986, -21.471602], [-51.920695, -21.431835], [-51.919202, -21.421793], [-51.867191, -21.351186], [-51.864197, -21.343693], [-51.857158, -21.297298], [-51.853786, -21.260454], [-51.863568, -21.225486], [-51.877668, -21.155971], [-51.87848, -21.147665], [-51.844092, -21.130988], [-51.823091, -21.126367], [-51.811588, -21.116747], [-51.775146, -21.072623], [-51.771635, -21.048282], [-51.718945, -20.975331], [-51.713198, -20.970985], [-51.626187, -20.945876], [-51.612984, -20.889602], [-51.618823, -20.881265], [-51.632479, -20.821086], [-51.626212, -20.79094], [-51.626984, -20.784234], [-51.634399, -20.754379], [-51.627716, -20.724599], [-51.586467, -20.63433], [-51.576217, -20.624854], [-51.522989, -20.588172], [-51.499729, -20.567745], [-51.494417, -20.55301], [-51.448735, -20.482345], [-51.420986, -20.466204], [-51.408785, -20.4591], [-51.403458, -20.452156], [-51.374619, -20.396057], [-51.359386, -20.381299], [-51.350374, -20.36271], [-51.321004, -20.339187], [-51.308098, -20.333601], [-51.239485, -20.316473], [-51.150606, -20.30145], [-51.127236, -20.292065], [-51.063276, -20.241122], [-51.057882, -20.232666], [-51.044525, -20.188768], [-51.044522, -20.188761], [-51.039535, -20.176544], [-50.999985, -20.084914], [-50.996894, -20.080292], [-50.948675, -20.031046], [-50.944797, -20.028628], [-50.93317, -20.014461], [-50.909517, -19.998196], [-50.907644, -19.993788], [-50.873437, -19.988293], [-50.871271, -19.98809], [-50.85289, -19.970972], [-50.816847, -19.957864], [-50.803046, -19.9482], [-50.783115, -19.936761], [-50.724629, -19.926351], [-50.635698, -19.874596], [-50.616031, -19.861264], [-50.605758, -19.855866], [-50.580666, -19.82096], [-50.575501, -19.815551], [-50.517324, -19.796295], [-50.51656, -19.795935], [-50.498705, -19.795326], [-50.49594, -19.793169], [-50.471424, -19.779185], [-50.372419, -19.844908], [-50.367726, -19.848694], [-50.355877, -19.855799], [-50.352314, -19.864117], [-50.323681, -19.870138], [-50.244674, -19.876288], [-50.220409, -19.867964], [-50.173101, -19.874188], [-50.159213, -19.877781], [-50.10233, -19.875441], [-50.076339, -19.887562], [-50.043416, -19.916025], [-49.904513, -19.938576], [-49.890804, -19.94325], [-49.844958, -19.93961], [-49.834781, -19.932842], [-49.798458, -19.928647], [-49.781977, -19.923991], [-49.749086, -19.924848], [-49.626189, -19.927273], [-49.605479, -19.916014], [-49.570091, -19.910159], [-49.550991, -19.905373], [-49.523579, -19.911399], [-49.487009, -19.954758], [-49.457707, -19.975511], [-49.439905, -19.980332], [-49.344982, -19.983167], [-49.33397, -19.980097], [-49.305399, -19.9631], [-49.297065, -19.960072], [-49.255898, -19.965825], [-49.25365, -19.966913], [-49.246546, -19.982066], [-49.262059, -20.006453], [-49.268765, -20.005807], [-49.296087, -20.016377], [-49.307237, -20.073287], [-49.305327, -20.116514], [-49.26537, -20.227851], [-49.261399, -20.239421], [-49.258792, -20.258111], [-49.238354, -20.286567], [-49.217068, -20.303234], [-49.179091, -20.3097], [-49.130296, -20.279669], [-49.120261, -20.268832], [-49.089208, -20.211279], [-49.062878, -20.15245], [-49.058749, -20.150633], [-49.023382, -20.151857], [-48.987619, -20.169308], [-48.983461, -20.173699], [-48.962522, -20.273012], [-48.963727, -20.283205], [-48.965488, -20.397952], [-48.896356, -20.439755], [-48.88632, -20.435876], [-48.86865, -20.406495], [-48.8671, -20.398194], [-48.869355, -20.377286], [-48.881634, -20.30461], [-48.888074, -20.294699], [-48.857871, -20.229379], [-48.85369, -20.216718], [-48.857416, -20.198851], [-48.855175, -20.18161], [-48.843997, -20.17284], [-48.753255, -20.152893], [-48.732281, -20.150187], [-48.692186, -20.162182], [-48.685028, -20.161677], [-48.662373, -20.166217], [-48.646403, -20.166068], [-48.59569, -20.137393], [-48.588213, -20.134528], [-48.554161, -20.129821], [-48.536882, -20.133025], [-48.502235, -20.137472], [-48.450727, -20.125161], [-48.43856, -20.119747], [-48.368754, -20.122306], [-48.357623, -20.12117], [-48.345092, -20.117171], [-48.307153, -20.118244], [-48.295031, -20.123529], [-48.27577, -20.140024], [-48.267984, -20.142414], [-48.218215, -20.125899], [-48.218528, -20.11491], [-48.249597, -20.085312], [-48.243687, -20.04687], [-48.247047, -20.035444], [-48.213634, -20.03487], [-48.210998, -20.037355], [-48.202922, -20.044967], [-48.167274, -20.10334], [-48.165467, -20.103416], [-48.126083, -20.130782], [-48.121654, -20.134651], [-48.094083, -20.145956], [-48.046251, -20.131924], [-48.037731, -20.11652], [-48.002891, -20.104157], [-47.990095, -20.074514], [-47.985594, -20.038593], [-47.980931, -20.036169], [-47.975508, -20.034894], [-47.938336, -20.099446], [-47.933638, -20.107371], [-47.893921, -20.123355], [-47.878159, -20.102566], [-47.869504, -20.063218], [-47.85965, -20.049348], [-47.860588, -20.046003], [-47.875359, -20.029545], [-47.874938, -20.019965], [-47.851276, -19.990459], [-47.801101, -19.984756], [-47.773466, -19.984817], [-47.733223, -19.987452], [-47.722727, -19.982562], [-47.675696, -20.001435], [-47.673732, -20.010888], [-47.661771, -20.02859], [-47.624477, -20.041808], [-47.622269, -20.041772], [-47.593142, -20.015651], [-47.592067, -20.00652], [-47.553686, -19.995504], [-47.512368, -19.982646], [-47.508071, -19.982457], [-47.497144, -19.971131], [-47.489499, -19.96994], [-47.47755, -19.965562], [-47.465923, -19.963742], [-47.456959, -19.97686], [-47.437362, -19.996487], [-47.425215, -20.012348], [-47.443449, -20.029238], [-47.438674, -20.049187], [-47.414168, -20.068476], [-47.374116, -20.083184], [-47.358222, -20.103502], [-47.330921, -20.113767], [-47.309218, -20.124018], [-47.267365, -20.156818], [-47.254414, -20.191565], [-47.230652, -20.218623], [-47.245809, -20.260962], [-47.254442, -20.266423], [-47.264167, -20.282101], [-47.281368, -20.312103], [-47.284179, -20.314715], [-47.285298, -20.319266], [-47.289832, -20.333249], [-47.288982, -20.337045], [-47.294974, -20.368749], [-47.292082, -20.369838], [-47.292055, -20.381523], [-47.293309, -20.385213], [-47.292081, -20.385632], [-47.285378, -20.404823], [-47.289129, -20.409325], [-47.293025, -20.417542], [-47.291481, -20.418698], [-47.29084, -20.423039], [-47.293834, -20.431372], [-47.289292, -20.433509], [-47.286855, -20.443041], [-47.291328, -20.448829], [-47.262476, -20.467647], [-47.253149, -20.477477], [-47.250139, -20.476264], [-47.201601, -20.502868], [-47.199169, -20.503139], [-47.153918, -20.519245], [-47.142999, -20.541659], [-47.141958, -20.545067], [-47.131952, -20.590271], [-47.12555, -20.589983], [-47.124109, -20.608801], [-47.108441, -20.621029], [-47.11148, -20.634344], [-47.096922, -20.643854], [-47.096057, -20.658585], [-47.101656, -20.673196], [-47.100773, -20.682645], [-47.112339, -20.696164], [-47.118299, -20.706762], [-47.148658, -20.707115], [-47.168939, -20.705212], [-47.172667, -20.711432], [-47.185802, -20.730649], [-47.181853, -20.740872], [-47.188362, -20.77014], [-47.206615, -20.775047], [-47.212304, -20.789107], [-47.224298, -20.799643], [-47.214567, -20.825311], [-47.227263, -20.856798], [-47.21706, -20.917391], [-47.210004, -20.923654], [-47.190846, -20.934651], [-47.192111, -20.941569], [-47.174846, -20.954608], [-47.164072, -20.965565], [-47.159192, -20.966844], [-47.143268, -20.981899], [-47.148822, -20.993953], [-47.150517, -21.005732], [-47.150959, -21.010258], [-47.156518, -21.018475], [-47.145645, -21.058565], [-47.142968, -21.062478], [-47.141311, -21.084658], [-47.14183, -21.087743], [-47.135319, -21.089119], [-47.112335, -21.108153], [-47.119974, -21.1115], [-47.133046, -21.132975], [-47.116851, -21.153211], [-47.118107, -21.174845], [-47.118334, -21.185287], [-47.098248, -21.213003], [-47.095195, -21.209184], [-47.065117, -21.20701], [-47.0623, -21.209496], [-47.070355, -21.221351], [-47.076908, -21.239295], [-47.062647, -21.238829], [-47.05087, -21.256748], [-47.044406, -21.265452], [-47.04034, -21.284452], [-47.029464, -21.299327], [-47.031923, -21.304572], [-47.028397, -21.313003], [-47.02054, -21.321165], [-47.021207, -21.332223], [-47.017451, -21.339954], [-46.996436, -21.356922], [-47.004149, -21.383133], [-47.00827, -21.392385], [-47.009832, -21.405382], [-47.00726, -21.410184], [-47.012379, -21.41589], [-46.992196, -21.424697], [-46.986417, -21.421151], [-46.976472, -21.422486], [-46.97549, -21.420827], [-46.97041, -21.42154], [-46.962487, -21.419079], [-46.958989, -21.421962], [-46.94865, -21.419105], [-46.939753, -21.422449], [-46.924999, -21.422149], [-46.924279, -21.422839], [-46.917062, -21.421466], [-46.907967, -21.420692], [-46.902931, -21.415741], [-46.89285, -21.415128], [-46.885749, -21.408005], [-46.881999, -21.406042], [-46.864909, -21.395075], [-46.859428, -21.393907], [-46.85533, -21.389234], [-46.852415, -21.389105], [-46.834783, -21.382028], [-46.832307, -21.367317], [-46.818349, -21.365915], [-46.788031, -21.370393], [-46.785747, -21.368442], [-46.780746, -21.370126], [-46.775944, -21.362336], [-46.764251, -21.359575], [-46.761672, -21.374505], [-46.755085, -21.379768], [-46.724189, -21.391198], [-46.719994, -21.389151], [-46.714256, -21.392181], [-46.693438, -21.390071], [-46.692271, -21.384659], [-46.67347, -21.374005], [-46.665248, -21.36116], [-46.646728, -21.363766], [-46.645577, -21.375264], [-46.646963, -21.379462], [-46.638338, -21.401498], [-46.63804, -21.403288], [-46.62612, -21.410993], [-46.617977, -21.42069], [-46.61561, -21.428997], [-46.614807, -21.440979], [-46.602263, -21.443316], [-46.576101, -21.426465], [-46.571315, -21.433968], [-46.560983, -21.441318], [-46.547026, -21.440983], [-46.535301, -21.448629], [-46.519786, -21.44801], [-46.511778, -21.476687], [-46.511336, -21.478256], [-46.513482, -21.494376], [-46.518797, -21.500399], [-46.515383, -21.510694], [-46.52009, -21.533013], [-46.514521, -21.534852], [-46.502931, -21.561456], [-46.50922, -21.564682], [-46.511689, -21.571627], [-46.524002, -21.600491], [-46.518193, -21.603923], [-46.525394, -21.616055], [-46.533831, -21.620796], [-46.552526, -21.637577], [-46.547871, -21.649239], [-46.565477, -21.657579], [-46.571237, -21.681649], [-46.577062, -21.684447], [-46.623414, -21.692637], [-46.6285, -21.696058], [-46.627331, -21.705856], [-46.625136, -21.733605], [-46.630389, -21.740409], [-46.63371, -21.76847], [-46.6365, -21.767696], [-46.641053, -21.771263], [-46.651342, -21.787063], [-46.650823, -21.789028], [-46.668101, -21.809148], [-46.670367, -21.815993], [-46.683111, -21.843625], [-46.676689, -21.84985], [-46.666305, -21.848545], [-46.647087, -21.879969], [-46.652721, -21.895429], [-46.672017, -21.908663], [-46.664563, -21.920095], [-46.656592, -21.938934], [-46.653356, -21.952848], [-46.643415, -21.974463], [-46.623449, -21.992046], [-46.620381, -21.993348], [-46.613753, -22.001387], [-46.616716, -22.016591], [-46.632902, -22.010864], [-46.650332, -22.009908], [-46.65185, -22.010241], [-46.66175, -22.023204], [-46.663393, -22.023023], [-46.676609, -22.023507], [-46.680059, -22.044884], [-46.675939, -22.054878], [-46.661115, -22.064111], [-46.664365, -22.068408], [-46.68349, -22.073405], [-46.712901, -22.074325], [-46.720057, -22.074454], [-46.719662, -22.08231], [-46.7158, -22.089412], [-46.693068, -22.090406], [-46.670469, -22.096847], [-46.659123, -22.093314], [-46.640646, -22.099866], [-46.633886, -22.107173], [-46.616937, -22.126452], [-46.615671, -22.130126], [-46.600063, -22.134254], [-46.624107, -22.152895], [-46.639773, -22.157162], [-46.650221, -22.177109], [-46.661969, -22.179758], [-46.673201, -22.175628], [-46.673182, -22.175681], [-46.677725, -22.223497], [-46.684201, -22.229405], [-46.690029, -22.24352], [-46.688117, -22.248155], [-46.693585, -22.246175], [-46.705449, -22.273959], [-46.701881, -22.277383], [-46.709887, -22.284891], [-46.705, -22.295407], [-46.7172, -22.306013], [-46.717498, -22.316449], [-46.713762, -22.314223], [-46.700742, -22.320995], [-46.698491, -22.331841], [-46.696545, -22.338594], [-46.697603, -22.341995], [-46.693185, -22.342985], [-46.69092, -22.346555], [-46.690277, -22.346257], [-46.686574, -22.3568], [-46.682011, -22.357474], [-46.668838, -22.367357], [-46.665851, -22.380493], [-46.662964, -22.391049], [-46.650255, -22.423034], [-46.646625, -22.428209], [-46.639594, -22.425196], [-46.622226, -22.437018], [-46.616164, -22.438168], [-46.602994, -22.442586], [-46.59937, -22.44105], [-46.575599, -22.444422], [-46.573899, -22.444874], [-46.572196, -22.452644], [-46.554357, -22.446157], [-46.548114, -22.45479], [-46.549184, -22.46815], [-46.549103, -22.468513], [-46.542499, -22.467265], [-46.535607, -22.487262], [-46.541691, -22.493858], [-46.496752, -22.512737], [-46.490724, -22.50989], [-46.466404, -22.518035], [-46.454056, -22.521899], [-46.448742, -22.530337], [-46.438915, -22.540098], [-46.425852, -22.547075], [-46.41124, -22.536204], [-46.406688, -22.540048], [-46.416209, -22.558412], [-46.419577, -22.584388], [-46.412191, -22.585205], [-46.422573, -22.598124], [-46.417082, -22.604817], [-46.413938, -22.622482], [-46.420212, -22.637542], [-46.408006, -22.639663], [-46.39191, -22.652649], [-46.392504, -22.661063], [-46.405412, -22.672061], [-46.407448, -22.661657], [-46.412964, -22.659351], [-46.420679, -22.662972], [-46.42719, -22.660834], [-46.447932, -22.669271], [-46.454707, -22.670608], [-46.460852, -22.675515], [-46.480182, -22.677819], [-46.478114, -22.685389], [-46.474015, -22.696539], [-46.477479, -22.698898], [-46.472311, -22.704705], [-46.453445, -22.722701], [-46.452278, -22.727053], [-46.436788, -22.730489], [-46.424115, -22.73386], [-46.423631, -22.733542], [-46.40615, -22.740249], [-46.392289, -22.742997], [-46.385348, -22.739809], [-46.372682, -22.746181], [-46.360003, -22.760823], [-46.334763, -22.759699], [-46.332125, -22.765595], [-46.342986, -22.776741], [-46.360172, -22.788007], [-46.361242, -22.788444], [-46.375245, -22.828649], [-46.370243, -22.834571], [-46.376394, -22.861509], [-46.380385, -22.863546], [-46.37664, -22.87032], [-46.377409, -22.87656], [-46.375331, -22.877224], [-46.347982, -22.902277], [-46.346994, -22.902864], [-46.342008, -22.901566], [-46.305082, -22.891951], [-46.295, -22.897102], [-46.266413, -22.875188], [-46.262183, -22.877968], [-46.258076, -22.890075], [-46.233689, -22.881323], [-46.199377, -22.870447], [-46.163542, -22.865115], [-46.154884, -22.863675], [-46.136435, -22.89004], [-46.146025, -22.905377], [-46.153545, -22.911934], [-46.115688, -22.907005], [-46.108218, -22.904962], [-46.084853, -22.892197], [-46.07494, -22.890464], [-46.026881, -22.88417], [-45.991705, -22.877008], [-45.991801, -22.87318], [-45.964387, -22.855072], [-45.96187, -22.856191], [-45.955943, -22.852571], [-45.948289, -22.845315], [-45.943734, -22.845096], [-45.924541, -22.831634], [-45.922135, -22.823553], [-45.907599, -22.830064], [-45.905492, -22.833262], [-45.890569, -22.84417], [-45.889511, -22.858159], [-45.888465, -22.875316], [-45.870144, -22.871219], [-45.868608, -22.870534], [-45.857134, -22.860206], [-45.851634, -22.84764], [-45.849979, -22.846671], [-45.838528, -22.832489], [-45.829057, -22.834387], [-45.81728, -22.8325], [-45.809353, -22.828884], [-45.802391, -22.833352], [-45.790825, -22.857636], [-45.775225, -22.849385], [-45.765666, -22.841937], [-45.767156, -22.835998], [-45.75857, -22.800529], [-45.742458, -22.794844], [-45.741787, -22.801835], [-45.726087, -22.812341], [-45.722327, -22.815816], [-45.719839, -22.807774], [-45.721423, -22.804141], [-45.729017, -22.789272], [-45.728779, -22.786815], [-45.716354, -22.779481], [-45.712071, -22.768564], [-45.712877, -22.757632], [-45.717305, -22.754691], [-45.71802, -22.74679], [-45.728065, -22.728559], [-45.727948, -22.725865], [-45.756658, -22.720836], [-45.805383, -22.73647], [-45.81347, -22.728169], [-45.811201, -22.698253], [-45.791377, -22.693756], [-45.778434, -22.683068], [-45.766788, -22.67893], [-45.758313, -22.674186], [-45.748783, -22.669687], [-45.748346, -22.668606], [-45.731784, -22.656337], [-45.72678, -22.657944], [-45.693546, -22.651209], [-45.702299, -22.64092], [-45.70827, -22.638968], [-45.729354, -22.612735], [-45.736988, -22.608068], [-45.734152, -22.59695], [-45.716748, -22.581603], [-45.716467, -22.5781], [-45.687539, -22.579029], [-45.679297, -22.572922], [-45.658419, -22.597611], [-45.663468, -22.599458], [-45.667687, -22.609147], [-45.673974, -22.630198], [-45.680631, -22.635836], [-45.647246, -22.647732], [-45.617682, -22.637415], [-45.604631, -22.619934], [-45.587509, -22.609891], [-45.576271, -22.601853], [-45.563212, -22.612249], [-45.55491, -22.62594], [-45.576299, -22.640117], [-45.583925, -22.651189], [-45.581405, -22.651841], [-45.573073, -22.65647], [-45.551137, -22.652639], [-45.533057, -22.646643], [-45.5326, -22.646255], [-45.524486, -22.646374], [-45.494163, -22.626942], [-45.488357, -22.628285], [-45.480841, -22.590696], [-45.473862, -22.590201], [-45.45137, -22.60577], [-45.438599, -22.610196], [-45.437048, -22.611242], [-45.412487, -22.621713], [-45.412655, -22.627992], [-45.410048, -22.651174], [-45.394893, -22.651422], [-45.370155, -22.636814], [-45.352132, -22.62971], [-45.348507, -22.626013], [-45.334667, -22.621018], [-45.332517, -22.61714], [-45.274162, -22.615691], [-45.263773, -22.604072], [-45.25812, -22.592691], [-45.259429, -22.58237], [-45.22619, -22.566208], [-45.217081, -22.562737], [-45.177603, -22.549378], [-45.164074, -22.53743], [-45.159568, -22.516419], [-45.128017, -22.496609], [-45.121231, -22.49477], [-45.090681, -22.482598], [-45.087676, -22.483748], [-45.060247, -22.472053], [-45.02471, -22.46437], [-45.025958, -22.467724], [-45.009387, -22.465876], [-45.005832, -22.466458], [-44.991376, -22.465671], [-44.939632, -22.452169], [-44.898544, -22.452326], [-44.871047, -22.423759], [-44.859394, -22.422566], [-44.84421, -22.42728], [-44.832911, -22.430381], [-44.807554, -22.413563], [-44.808382, -22.407706], [-44.808797, -22.404772], [-44.772108, -22.412842], [-44.769558, -22.414631], [-44.76046, -22.414506], [-44.729778, -22.439622], [-44.726931, -22.446687], [-44.719404, -22.470348], [-44.722273, -22.473814], [-44.720127, -22.491831], [-44.709652, -22.499912], [-44.712108, -22.50597], [-44.700711, -22.51062], [-44.69869, -22.513402], [-44.679984, -22.52569], [-44.670497, -22.539189], [-44.675829, -22.544581], [-44.661094, -22.550434], [-44.649914, -22.556511], [-44.641932, -22.577134], [-44.646682, -22.584138], [-44.633017, -22.60873], [-44.616326, -22.610411], [-44.609841, -22.616166], [-44.601874, -22.607135], [-44.596734, -22.610047], [-44.591036, -22.622464], [-44.572611, -22.601451], [-44.56648, -22.607435], [-44.54852, -22.605681], [-44.536656, -22.616802], [-44.531328, -22.625446], [-44.537018, -22.631869], [-44.530795, -22.639307], [-44.524235, -22.630034], [-44.51952, -22.629882], [-44.485096, -22.610411], [-44.485482, -22.609494], [-44.482963, -22.604043], [-44.464397, -22.615469], [-44.455439, -22.6096], [-44.446292, -22.610011], [-44.4456, -22.60894], [-44.429791, -22.598029], [-44.405913, -22.607124], [-44.398075, -22.602517], [-44.405876, -22.590582], [-44.408968, -22.587763], [-44.383979, -22.573224], [-44.371206, -22.579606], [-44.359936, -22.581267], [-44.365936, -22.593351], [-44.361151, -22.592632], [-44.355966, -22.613765], [-44.349293, -22.608766], [-44.345736, -22.59677], [-44.347255, -22.590065], [-44.339758, -22.590579], [-44.322131, -22.592099], [-44.31758, -22.596689], [-44.311141, -22.595445], [-44.305815, -22.598603], [-44.295195, -22.598723], [-44.294711, -22.601818], [-44.277262, -22.602195], [-44.271071, -22.60045], [-44.253024, -22.611739], [-44.232337, -22.608036], [-44.230658, -22.607426], [-44.218684, -22.617163], [-44.216063, -22.616482], [-44.20375, -22.614916], [-44.198061, -22.629995], [-44.197378, -22.629971], [-44.186564, -22.641477], [-44.189883, -22.647185], [-44.161749, -22.674135], [-44.161287, -22.675514], [-44.163667, -22.68006], [-44.168421, -22.688033], [-44.168724, -22.688213], [-44.17417, -22.701603], [-44.177914, -22.707197], [-44.189202, -22.713268], [-44.200741, -22.723529], [-44.197984, -22.724478], [-44.226762, -22.733495], [-44.241667, -22.748919], [-44.238345, -22.755215], [-44.257134, -22.767981], [-44.257043, -22.778306], [-44.252636, -22.788141], [-44.24757, -22.789962], [-44.245073, -22.802085], [-44.259933, -22.804511], [-44.263243, -22.811335], [-44.282889, -22.835404], [-44.286287, -22.828041], [-44.318345, -22.841085], [-44.32147, -22.844847], [-44.320044, -22.839971], [-44.373799, -22.857581], [-44.386918, -22.857243], [-44.397887, -22.853396], [-44.401243, -22.854072], [-44.402406, -22.846655], [-44.426283, -22.855198], [-44.436702, -22.870697], [-44.476459, -22.873778], [-44.476026, -22.870328], [-44.480517, -22.865815], [-44.479802, -22.864242], [-44.479347, -22.850866], [-44.494289, -22.845988], [-44.505438, -22.851366], [-44.525827, -22.866769], [-44.532585, -22.868728], [-44.544739, -22.882012], [-44.575516, -22.878109], [-44.600182, -22.888294], [-44.609628, -22.887761], [-44.628684, -22.904116], [-44.638578, -22.913691], [-44.670487, -22.919769], [-44.673456, -22.917794], [-44.695721, -22.931755], [-44.704283, -22.934398], [-44.743409, -22.947096], [-44.751829, -22.96195], [-44.748936, -22.969508], [-44.759036, -22.97845], [-44.764878, -22.982898], [-44.786683, -22.982276], [-44.792039, -22.981663], [-44.794976, -23.007095], [-44.792708, -23.009748], [-44.797966, -23.020801], [-44.797152, -23.024115], [-44.801454, -23.033846], [-44.802718, -23.049004], [-44.811128, -23.054006], [-44.80967, -23.063919], [-44.81357, -23.067126], [-44.812419, -23.091416], [-44.811926, -23.091572], [-44.808596, -23.099234], [-44.814355, -23.111089], [-44.810764, -23.114615], [-44.818779, -23.132212], [-44.819375, -23.132726], [-44.824448, -23.143025], [-44.825012, -23.143219], [-44.824436, -23.160976], [-44.843932, -23.168104], [-44.845045, -23.170721], [-44.853762, -23.172292], [-44.853257, -23.174619], [-44.860298, -23.180988], [-44.87729, -23.198677], [-44.882598, -23.203661], [-44.883355, -23.218181], [-44.888492, -23.223999], [-44.877845, -23.232322], [-44.853993, -23.248491], [-44.836513, -23.256306], [-44.829238, -23.271989], [-44.826828, -23.279259], [-44.814033, -23.285773], [-44.806953, -23.282874], [-44.78703, -23.299576], [-44.780526, -23.31845], [-44.781624, -23.325935], [-44.760981, -23.341748], [-44.759703, -23.341992], [-44.756422, -23.348463], [-44.736461, -23.362059], [-44.733473, -23.364127], [-44.729963, -23.370034], [-44.735544, -23.369053], [-44.750245, -23.366422], [-44.772977, -23.374496], [-44.783986, -23.378174], [-44.791653, -23.369653], [-44.797141, -23.370933], [-44.801361, -23.376462], [-44.806043, -23.379574], [-44.825631, -23.386127], [-44.837354, -23.386978], [-44.843778, -23.386942], [-44.838474, -23.372877], [-44.838204, -23.369282], [-44.871274, -23.359331], [-44.891115, -23.372491], [-44.888123, -23.365205], [-44.884876, -23.350872], [-44.883021, -23.348289], [-44.887443, -23.337074], [-44.907363, -23.333195], [-44.910943, -23.338481], [-44.922111, -23.350333], [-44.922546, -23.350592], [-44.948302, -23.363767], [-44.948398, -23.368931], [-44.949007, -23.375299], [-44.960924, -23.380532], [-44.962341, -23.383828], [-44.96704, -23.387027], [-44.970644, -23.388529], [-44.97079, -23.393345], [-44.983013, -23.396882], [-44.984748, -23.397009], [-45.007972, -23.406049], [-45.022258, -23.415995], [-45.024464, -23.415403], [-45.039636, -23.421166], [-45.04028, -23.421827], [-45.047121, -23.425115], [-45.04844, -23.418346], [-45.051704, -23.415684], [-45.059992, -23.430763], [-45.065371, -23.430899], [-45.06699, -23.446614], [-45.054988, -23.45888], [-45.049648, -23.455399], [-45.034702, -23.456118], [-45.034529, -23.459365], [-45.032795, -23.464352], [-45.037719, -23.463023], [-45.049037, -23.465231], [-45.059736, -23.46674], [-45.061977, -23.467918], [-45.07358, -23.486863], [-45.073589, -23.491106], [-45.070086, -23.492414], [-45.076517, -23.504754], [-45.080244, -23.509112], [-45.086055, -23.513134], [-45.085074, -23.506005], [-45.084125, -23.499112], [-45.09771, -23.492617], [-45.103554, -23.495878], [-45.111202, -23.49594], [-45.118196, -23.49936], [-45.117228, -23.504348], [-45.112628, -23.5058], [-45.110004, -23.512392], [-45.113639, -23.525404], [-45.113374, -23.51972], [-45.122006, -23.516005], [-45.132981, -23.509049], [-45.136959, -23.507802], [-45.144128, -23.501072], [-45.146351, -23.496557], [-45.165426, -23.491867], [-45.171243, -23.493092], [-45.17198, -23.502436], [-45.166057, -23.528252], [-45.1656, -23.528355], [-45.164893, -23.540814], [-45.169188, -23.539105], [-45.18549, -23.541031], [-45.189667, -23.533346], [-45.186861, -23.528277], [-45.227783, -23.537568], [-45.231155, -23.548454], [-45.218097, -23.556266], [-45.217057, -23.558901], [-45.212407, -23.564694], [-45.210209, -23.570504], [-45.208444, -23.578696], [-45.221975, -23.581123], [-45.228881, -23.581983], [-45.244474, -23.592936], [-45.257851, -23.589879], [-45.259569, -23.592106], [-45.263482, -23.589025], [-45.269429, -23.58736], [-45.278265, -23.588263], [-45.279066, -23.586528], [-45.277124, -23.577686], [-45.293053, -23.575054], [-45.297181, -23.571644], [-45.319104, -23.577816], [-45.328732, -23.585724], [-45.338217, -23.59454], [-45.338978, -23.595687], [-45.357969, -23.624293], [-45.364145, -23.627145], [-45.377694, -23.623676], [-45.380033, -23.625553], [-45.382645, -23.627726], [-45.396558, -23.628701], [-45.398592, -23.623393], [-45.416085, -23.633087], [-45.418352, -23.635418], [-45.426124, -23.648971], [-45.430967, -23.668882], [-45.431654, -23.676714], [-45.429989, -23.693352], [-45.429259, -23.696452], [-45.420418, -23.725898], [-45.414339, -23.723758], [-45.404409, -23.723698], [-45.397534, -23.730573], [-45.398234, -23.736188], [-45.40718, -23.745595], [-45.410955, -23.749656], [-45.400583, -23.774948], [-45.396931, -23.783645], [-45.397593, -23.787713], [-45.39933, -23.8089], [-45.402704, -23.806536], [-45.405702, -23.81539], [-45.413508, -23.822204], [-45.420067, -23.824107], [-45.431342, -23.8287], [-45.434122, -23.827738], [-45.44488, -23.831444], [-45.446403, -23.826401], [-45.464673, -23.818247], [-45.474114, -23.82384], [-45.480678, -23.827728], [-45.500524, -23.838861], [-45.502504, -23.841336], [-45.513058, -23.831035], [-45.535542, -23.824215], [-45.533769, -23.81912], [-45.549498, -23.808899], [-45.554235, -23.809291], [-45.561205, -23.791125], [-45.594038, -23.796173], [-45.596765, -23.797566], [-45.623123, -23.803552], [-45.626127, -23.799652], [-45.635998, -23.783122], [-45.641654, -23.78465], [-45.646463, -23.778196], [-45.664538, -23.785314], [-45.664315, -23.778942], [-45.670874, -23.774488], [-45.677554, -23.774782], [-45.686035, -23.777093], [-45.69282, -23.781992], [-45.695078, -23.777726], [-45.703293, -23.773737], [-45.710827, -23.771786], [-45.717157, -23.773812], [-45.741701, -23.768492], [-45.75571, -23.769762], [-45.761739, -23.763179], [-45.768207, -23.762003], [-45.783403, -23.765229], [-45.790449, -23.766725], [-45.802398, -23.769198], [-45.802019, -23.76142], [-45.810315, -23.757481], [-45.844005, -23.757598], [-45.86836, -23.760685], [-45.884906, -23.762755], [-45.902681, -23.764979], [-45.977954, -23.786961], [-45.991539, -23.795092], [-45.996876, -23.802257], [-46.003347, -23.79994], [-46.031735, -23.808782], [-46.035232, -23.812186], [-46.036776, -23.820924], [-46.038747, -23.823586], [-46.043988, -23.824541], [-46.047972, -23.819622], [-46.051263, -23.815559], [-46.084486, -23.820391], [-46.093522, -23.824307], [-46.133267, -23.856877], [-46.142867, -23.860092], [-46.137723, -23.858882]]], [[[-45.320935, -23.914938], [-45.323803, -23.911696], [-45.331846, -23.915911], [-45.334067, -23.918463], [-45.337889, -23.922857], [-45.339743, -23.925002], [-45.342712, -23.922059], [-45.343371, -23.921407], [-45.347853, -23.916967], [-45.350165, -23.919456], [-45.355559, -23.925263], [-45.358242, -23.928151], [-45.361849, -23.928596], [-45.368609, -23.929349], [-45.373915, -23.929939], [-45.379391, -23.930549], [-45.389903, -23.93172], [-45.395378, -23.93233], [-45.399204, -23.932755], [-45.400159, -23.933443], [-45.406903, -23.9383], [-45.427374, -23.940393], [-45.432323, -23.938391], [-45.437161, -23.936433], [-45.443179, -23.933998], [-45.445307, -23.931546], [-45.450489, -23.925576], [-45.455518, -23.919785], [-45.459682, -23.914987], [-45.460136, -23.908888], [-45.461127, -23.895583], [-45.461657, -23.887757], [-45.456925, -23.883675], [-45.451361, -23.883726], [-45.448097, -23.879704], [-45.447455, -23.878913], [-45.446035, -23.877165], [-45.445013, -23.875906], [-45.441626, -23.871754], [-45.437018, -23.869814], [-45.434079, -23.868578], [-45.433237, -23.866733], [-45.432608, -23.865353], [-45.430054, -23.85976], [-45.424019, -23.859219], [-45.417856, -23.858666], [-45.414571, -23.852442], [-45.413877, -23.85095], [-45.411842, -23.846584], [-45.409641, -23.844799], [-45.407686, -23.843214], [-45.392829, -23.831379], [-45.390072, -23.829183], [-45.38552, -23.825556], [-45.379991, -23.82115], [-45.376577, -23.81843], [-45.370598, -23.813664], [-45.365934, -23.809647], [-45.364693, -23.800721], [-45.364233, -23.797416], [-45.36264, -23.786139], [-45.358433, -23.784409], [-45.358379, -23.779948], [-45.358352, -23.777734], [-45.355507, -23.775241], [-45.353138, -23.773164], [-45.351711, -23.770263], [-45.348812, -23.764115], [-45.350048, -23.759349], [-45.350592, -23.757252], [-45.348566, -23.74779], [-45.347723, -23.743849], [-45.346624, -23.738716], [-45.341001, -23.727052], [-45.335065, -23.724913], [-45.328825, -23.720992], [-45.31587, -23.72369], [-45.311023, -23.727636], [-45.306997, -23.730913], [-45.306987, -23.730922], [-45.299191, -23.731855], [-45.297535, -23.732053], [-45.292653, -23.732637], [-45.290416, -23.735591], [-45.290016, -23.73612], [-45.289306, -23.736064], [-45.275182, -23.734943], [-45.271699, -23.737942], [-45.266063, -23.742722], [-45.26116, -23.742507], [-45.256874, -23.747592], [-45.25513, -23.750009], [-45.257218, -23.755555], [-45.258222, -23.758681], [-45.254714, -23.760325], [-45.254384, -23.76048], [-45.249192, -23.762427], [-45.245421, -23.761335], [-45.233872, -23.775947], [-45.229593, -23.77629], [-45.232051, -23.779596], [-45.234151, -23.782422], [-45.234897, -23.791036], [-45.235202, -23.794928], [-45.235445, -23.797046], [-45.235734, -23.799553], [-45.239844, -23.805432], [-45.241876, -23.808338], [-45.241687, -23.811452], [-45.237506, -23.810755], [-45.238365, -23.816423], [-45.238672, -23.818445], [-45.238847, -23.818553], [-45.244548, -23.822062], [-45.248184, -23.824372], [-45.244018, -23.827581], [-45.244597, -23.831243], [-45.241689, -23.831123], [-45.238293, -23.830984], [-45.243341, -23.835989], [-45.241168, -23.838515], [-45.237018, -23.837346], [-45.232402, -23.83593], [-45.227859, -23.838176], [-45.238373, -23.843145], [-45.247312, -23.839577], [-45.250772, -23.838171], [-45.251359, -23.83795], [-45.255632, -23.836332], [-45.264184, -23.837332], [-45.268728, -23.837865], [-45.272169, -23.838268], [-45.275734, -23.84143], [-45.278647, -23.844108], [-45.285007, -23.849988], [-45.28533, -23.854378], [-45.285525, -23.857863], [-45.285748, -23.861871], [-45.289743, -23.865889], [-45.287773, -23.872281], [-45.271888, -23.874145], [-45.268924, -23.874493], [-45.268754, -23.878984], [-45.270533, -23.879921], [-45.276924, -23.88329], [-45.271848, -23.891528], [-45.267796, -23.891261], [-45.261517, -23.891633], [-45.251447, -23.898578], [-45.247533, -23.901286], [-45.245227, -23.896967], [-45.245124, -23.896772], [-45.242571, -23.891643], [-45.235122, -23.898878], [-45.229124, -23.89752], [-45.224435, -23.902473], [-45.226076, -23.906525], [-45.235971, -23.905488], [-45.237135, -23.906867], [-45.238122, -23.908035], [-45.237691, -23.923923], [-45.235859, -23.925679], [-45.232744, -23.928662], [-45.235432, -23.931967], [-45.236788, -23.933635], [-45.235744, -23.941774], [-45.235732, -23.941871], [-45.226769, -23.940793], [-45.234135, -23.947197], [-45.236607, -23.95388], [-45.238095, -23.957897], [-45.250468, -23.965477], [-45.254864, -23.964969], [-45.262318, -23.963942], [-45.267292, -23.963257], [-45.270256, -23.959718], [-45.275651, -23.953275], [-45.277719, -23.950805], [-45.279977, -23.948109], [-45.285421, -23.941492], [-45.283235, -23.936779], [-45.283165, -23.936629], [-45.281956, -23.934024], [-45.279579, -23.928712], [-45.283919, -23.92109], [-45.285645, -23.91809], [-45.290183, -23.910201], [-45.296297, -23.912404], [-45.30174, -23.914575], [-45.303998, -23.908628], [-45.30917, -23.911126], [-45.313341, -23.913541], [-45.317106, -23.914497], [-45.320935, -23.914938]]], [[[-45.077848, -23.535286], [-45.064817, -23.538017], [-45.059144, -23.526232], [-45.039396, -23.534384], [-45.046777, -23.542835], [-45.069815, -23.556151], [-45.079198, -23.563836], [-45.081899, -23.553088], [-45.081487, -23.540952], [-45.080149, -23.533498], [-45.080502, -23.525411], [-45.076678, -23.530016], [-45.077848, -23.535286]]], [[[-45.139775, -23.799866], [-45.114916, -23.807171], [-45.118344, -23.81447], [-45.119681, -23.817279], [-45.132296, -23.812545], [-45.146153, -23.820932], [-45.15639, -23.812895], [-45.158348, -23.805178], [-45.148576, -23.794546], [-45.138333, -23.792671], [-45.139152, -23.796758], [-45.139775, -23.799866]]], [[[-45.163376, -23.566709], [-45.156313, -23.559269], [-45.151657, -23.563108], [-45.147614, -23.56644], [-45.145799, -23.57018], [-45.150058, -23.569541], [-45.152677, -23.568408], [-45.15762, -23.572813], [-45.16113, -23.569129], [-45.163376, -23.566709]]], [[[-45.01966, -23.758692], [-45.018595, -23.754241], [-45.009291, -23.752207], [-45.008732, -23.759404], [-45.011856, -23.762092], [-45.015913, -23.765323], [-45.020338, -23.762851], [-45.01966, -23.758692]]], [[[-45.779012, -23.867611], [-45.78175, -23.870508], [-45.786864, -23.867287], [-45.787367, -23.861995], [-45.784601, -23.858372], [-45.778837, -23.857254], [-45.775499, -23.858661], [-45.779012, -23.867611]]], [[[-45.293576, -23.596097], [-45.292307, -23.593246], [-45.285965, -23.593149], [-45.28083, -23.593071], [-45.282815, -23.601086], [-45.288561, -23.600791], [-45.29527, -23.600042], [-45.293576, -23.596097]]], [[[-45.018595, -23.754241], [-45.024286, -23.751931], [-45.022745, -23.743563], [-45.01844, -23.743987], [-45.014631, -23.746732], [-45.016814, -23.750805], [-45.018595, -23.754241]]], [[[-45.725934, -23.800637], [-45.719123, -23.797829], [-45.714548, -23.80298], [-45.717449, -23.804154], [-45.724011, -23.802953], [-45.725934, -23.800637]]], [[[-45.526033, -23.849328], [-45.522752, -23.845662], [-45.520239, -23.84863], [-45.522206, -23.854422], [-45.525207, -23.854021], [-45.526033, -23.849328]]], [[[-46.906652, -24.389684], [-46.903123, -24.387248], [-46.901777, -24.394166], [-46.903396, -24.396626], [-46.90626, -24.394412], [-46.906652, -24.389684]]], [[[-46.909409, -24.373831], [-46.904537, -24.373831], [-46.904459, -24.377402], [-46.90859, -24.380528], [-46.910651, -24.377446], [-46.909409, -24.373831]]], [[[-45.033318, -23.548712], [-45.024654, -23.54396], [-45.025823, -23.549256], [-45.033318, -23.548712]]], [[[-44.851379, -23.399177], [-44.853381, -23.403232], [-44.855043, -23.398048], [-44.849429, -23.39494], [-44.851379, -23.399177]]], [[[-44.948537, -23.38621], [-44.940537, -23.383518], [-44.9445, -23.387351], [-44.948537, -23.38621]]], [[[-46.979876, -24.37096], [-46.978996, -24.367896], [-46.974882, -24.369621], [-46.977016, -24.372281], [-46.979876, -24.37096]]], [[[-47.913506, -25.166847], [-47.911411, -25.162919], [-47.908408, -25.166948], [-47.913506, -25.166847]]], [[[-45.228607, -23.813211], [-45.225242, -23.813678], [-45.228225, -23.817086], [-45.228607, -23.813211]]], [[[-45.325172, -23.915907], [-45.320935, -23.914938], [-45.322992, -23.917357], [-45.324072, -23.918626], [-45.324569, -23.917398], [-45.325172, -23.915907]]], [[[-45.714043, -23.790181], [-45.712564, -23.787262], [-45.709084, -23.788211], [-45.714043, -23.790181]]], [[[-45.276823, -23.853116], [-45.278635, -23.854947], [-45.279758, -23.852083], [-45.277006, -23.852336], [-45.276129, -23.852416], [-45.276823, -23.853116]]], [[[-45.297189, -23.920585], [-45.297003, -23.916967], [-45.294481, -23.918756], [-45.297189, -23.920585]]], [[[-45.156356, -23.830774], [-45.153855, -23.828627], [-45.153078, -23.831627], [-45.156356, -23.830774]]], [[[-45.671725, -23.804677], [-45.670327, -23.802003], [-45.668829, -23.804942], [-45.671725, -23.804677]]]]}}